QIANFAN-41              
1 62242U 24232F   25246.77484945  .00000082  00000+0  10841-3 0  9992
2 62242  88.9949  51.2824 0015751 117.2204 243.0554 13.50968823 85756
QIANFAN-42              
1 62243U 24232G   25246.73766820  .00000295  00000+0  12118-3 0  9999
2 62243  88.9950  48.7747 0016818  56.9008 303.3796 14.24344270 87138
QIANFAN-43              
1 62244U 24232H   25246.77073768  .00000078  00000+0  10252-3 0  9992
2 62244  88.9953  51.3437 0017187 122.1947 238.0874 13.50966162 54364
QIANFAN-44              
1 62245U 24232J   25246.75838995  .00000072  00000+0  92007-4 0  9995
2 62245  88.9952  51.1572 0015450 119.2090 241.0609 13.50964887 85837
QIANFAN-45              
1 62246U 24232K   25246.72548032  .00000081  00000+0  10698-3 0  9998
2 62246  88.9955  51.3036 0016092 119.1402 241.1362 13.50968394 85752
QIANFAN-46              
1 62247U 24232L   25246.75015693  .00000074  00000+0  96194-4 0  9992
2 62247  88.9951  51.3742 0016090 123.9967 236.2716 13.50969065 85710
QIANFAN-47              
1 62248U 24232M   25246.75423306  .00000075  00000+0  97580-4 0  9998
2 62248  88.9947  51.3107 0016528 123.2964 236.9773 13.50962486 85740
QIANFAN-48              
1 62249U 24232N   25246.71723762  .00000101  00000+0  13732-3 0  9990
2 62249  88.9951  51.3124 0018734 126.2710 234.0176 13.50965899 85745
